[{"OBJECT_NAME":"STARLINK-2380","OBJECT_ID":"2021-018N","EPOCH":"2026-03-10T00:00:02.999808","MEAN_MOTION":15.13878952,"ECCENTRICITY":0.00017365,"INCLINATION":53.0862,"RA_OF_ASC_NODE":230.0961,"ARG_OF_PERICENTER":70.6216,"MEAN_ANOMALY":14.3267,"EPHEMERIS_TYPE":0,"CLASSIFICATION_TYPE":"U","NORAD_CAT_ID":47799,"ELEMENT_SET_NO":999,"REV_AT_EPOCH":569,"BSTAR":0.058689592,"MEAN_MOTION_DOT":0.0117011,"MEAN_MOTION_DDOT":0},{"OBJECT_NAME":"TIANMU-1 22","OBJECT_ID":"2023-208D","EPOCH":"2026-03-09T22:39:05.738688","MEAN_MOTION":15.29457749,"ECCENTRICITY":0.00031332,"INCLINATION":97.4379,"RA_OF_ASC_NODE":184.9419,"ARG_OF_PERICENTER":351.9312,"MEAN_ANOMALY":8.1877,"EPHEMERIS_TYPE":0,"CLASSIFICATION_TYPE":"U","NORAD_CAT_ID":58663,"ELEMENT_SET_NO":999,"REV_AT_EPOCH":12215,"BSTAR":0.00038239675,"MEAN_MOTION_DOT":0.00010851,"MEAN_MOTION_DDOT":0}]
